ONEWEB-0556             
1 55798U 23029C   26190.20580591 -.00002393  00000+0 -59177-2 0  9997
2 55798  87.9176 270.0786 0001415 100.6192 259.5101 13.20788951164057
ONEWEB-0562             
1 55799U 23029D   26192.16206795  .00000129  00000+0  28537-3 0  9996
2 55799  87.9180 269.6703 0001396  76.9554 283.1735 13.20771958164315
ONEWEB-0563             
1 55800U 23029E   26192.15700517 -.00000224  00000+0 -58382-3 0  9998
2 55800  87.9177 269.7015 0002022 106.0919 254.0437 13.20770731164301
ONEWEB-0564             
1 55801U 23029F   26192.15028964  .00000056  00000+0  10695-3 0  9994
2 55801  87.9180 269.6770 0001814  90.3120 269.8221 13.20772482164311
ONEWEB-0638             
1 55802U 23029G   26190.23888194  .00000050  00000+0  99490-4 0  9996
2 55802  87.8960 285.3561 0001419  96.7048 263.4244 13.14504124162299
ONEWEB-0639             
1 55803U 23029H   26191.68674182  .00000009  00000+0 -89256-5 0  9992
2 55803  87.9179 300.2968 0002470 124.5240 235.6126 13.19726484162002
ONEWEB-0640             
1 55804U 23029J   26192.22745197  .00000006  00000+0 -18663-4 0  9999
2 55804  87.8959 284.9505 0001510 113.1926 246.9363 13.14502535162576
ONEWEB-0641             
1 55805U 23029K   26189.86240770 -.00000988  00000+0 -25007-2 0  9991
2 55805  87.9193 300.6496 0002057 106.5945 253.5414 13.19732088161772
ONEWEB-0642             
1 55806U 23029L   26190.23676422 -.00000143  00000+0 -38856-3 0  9992
2 55806  87.9191 300.5858 0002509 118.8424 241.2961 13.19727392161810
ONEWEB-0643             
1 55807U 23029M   26192.19732556 -.00000099  00000+0 -30092-3 0  9995
2 55807  87.8962 284.9439 0002635 108.7562 251.3854 13.14502359162540
ONEWEB-0644             
1 55808U 23029N   26191.29346062  .00000030  00000+0  42734-4 0  9999
2 55808  87.9181 300.3764 0002239 108.2878 251.8498 13.19725497161952
ONEWEB-0645             
1 55809U 23029P   26191.23975568  .00000019  00000+0  14057-4 0  9997
2 55809  87.9184 300.3839 0001907 115.5094 244.6236 13.19725897161944
ONEWEB-0646             
1 55810U 23029Q   26191.25712479  .00000090  00000+0  19235-3 0  9992
2 55810  87.9185 300.3809 0002183 107.2590 252.8782 13.19726532161933
ONEWEB-0648             
1 55811U 23029R   26191.25219605  .00000215  00000+0  54508-3 0  9997
2 55811  87.8980 285.1070 0002270 128.7383 231.3950 13.14503006162429
ONEWEB-0649             
1 55812U 23029S   26191.28239032 -.00000055  00000+0 -17023-3 0  9992
2 55812  87.9186 300.3739 0001970 108.6388 251.4959 13.19725870161970
ONEWEB-0650             
1 55813U 23029T   26190.29203538  .00000038  00000+0  61782-4 0  9996
2 55813  87.9183 300.5733 0002359 115.5231 244.6146 13.19726002161813
ONEWEB-0652             
1 55814U 23029U   26192.22269455 -.00000006  00000+0 -51399-4 0  9992
2 55814  87.8966 284.9223 0002000  95.8538 264.2820 13.14502357162520
ONEWEB-0653             
1 55815U 23029V   26191.21729862 -.00000219  00000+0 -62644-3 0  9994
2 55815  87.8967 285.1197 0001946  99.3095 260.8254 13.14502047162428
ONEWEB-0654             
1 55816U 23029W   26192.20207206 -.00000146  00000+0 -42942-3 0  9996
2 55816  87.8971 284.9199 0001908  89.8982 270.2366 13.14502076162577
ONEWEB-0656             
1 55817U 23029X   26190.17386145  .00000080  00000+0  16574-3 0  9998
2 55817  87.9189 270.0495 0001994  86.5181 273.6181 13.20769953164058
ONEWEB-0657             
1 55818U 23029Y   26191.57621531  .00000064  00000+0  12812-3 0  9998
2 55818  87.9182 300.3164 0002317  82.0285 278.1111 13.19726737161992
ONEWEB-0658             
1 55819U 23029Z   26191.26818972  .00000056  00000+0  10816-3 0  9995
2 55819  87.9187 300.3556 0002286 110.8988 249.2389 13.19725925161969
ONEWEB-0660             
1 55820U 23029AA  26191.26645948  .00000038  00000+0  66711-4 0  9994
2 55820  87.8976 285.1022 0001830 107.2250 252.9080 13.14501471162435
ONEWEB-0661             
1 55821U 23029AB  26192.21476854 -.00000209  00000+0 -59913-3 0  9996
2 55821  87.8960 284.9532 0001797 104.0367 256.0963 13.14502461162545
ONEWEB-0662             
1 55822U 23029AC  26192.17354034  .00000327  00000+0  84669-3 0  9992
2 55822  87.8963 284.9670 0001952 119.1320 241.0005 13.14502140162580
ONEWEB-0663             
1 55823U 23029AD  26192.17546340  .00000071  00000+0  14226-3 0  9994
2 55823  87.9189 269.7225 0002105 110.2920 249.8440 13.20871332164319
ONEWEB-0664             
1 55824U 23029AE  26190.16041527  .00000067  00000+0  13351-3 0  9992
2 55824  87.9180 270.1016 0001577  99.7884 260.3428 13.20772061164040
ONEWEB-0665             
1 55825U 23029AF  26192.21159620 -.00000199  00000+0 -57048-3 0  9994
2 55825  87.8958 284.9348 0001976 108.6944 251.4400 13.14502292162560
ONEWEB-0666             
1 55826U 23029AG  26192.19909794 -.00000032  00000+0 -11095-3 0  9995
2 55826  87.9177 269.6854 0002652  86.4432 273.7004 13.20772611164328
ONEWEB-0667             
1 55827U 23029AH  26192.19404693 -.00000062  00000+0 -18555-3 0  9995
2 55827  87.9193 269.6482 0001972 101.8527 258.2827 13.20772692164314
